[{"OBJECT_NAME":"SITRO-AIS 8 (ANOKHIN)","OBJECT_ID":"2023-091AD","EPOCH":"2026-03-09T23:44:40.058592","MEAN_MOTION":15.29359179,"ECCENTRICITY":0.0012509,"INCLINATION":97.5169,"RA_OF_ASC_NODE":133.2823,"ARG_OF_PERICENTER":92.0171,"MEAN_ANOMALY":268.2501,"EPHEMERIS_TYPE":0,"CLASSIFICATION_TYPE":"U","NORAD_CAT_ID":57193,"ELEMENT_SET_NO":999,"REV_AT_EPOCH":14927,"BSTAR":0.00064982524,"MEAN_MOTION_DOT":0.00018494,"MEAN_MOTION_DDOT":0},{"OBJECT_NAME":"STARLINK-34837","OBJECT_ID":"2025-192V","EPOCH":"2026-03-09T22:00:01.999584","MEAN_MOTION":15.3019202,"ECCENTRICITY":8.322e-5,"INCLINATION":53.1586,"RA_OF_ASC_NODE":231.2114,"ARG_OF_PERICENTER":82.97,"MEAN_ANOMALY":152.4738,"EPHEMERIS_TYPE":0,"CLASSIFICATION_TYPE":"U","NORAD_CAT_ID":65423,"ELEMENT_SET_NO":999,"REV_AT_EPOCH":573,"BSTAR":0.0028885231,"MEAN_MOTION_DOT":0.00086166,"MEAN_MOTION_DDOT":0}]
